CTC1_L_00435016-03
1 10062U 24122RJ  26075.70034722  .00000000  00000+0  00000-0 0  9994
2 10062  80.0000 180.0000 0000000   0.0000   0.0000 12.53473438    19
CTC1_L_00435016-04
1 10063U 22628DN  26075.70034722  .00000000  00000+0  00000-0 0  9994
2 10063  80.0000 180.0000 0000000   0.0000  90.0000 12.53473438    19
CTC1_L_00435017-01
1 10064U 22862RE  26075.70034722  .00000000  00000+0  00000-0 0  9995
2 10064  80.0000 192.0000 0000000   0.0000 192.0000 12.53473438    16
CTC1_L_00435017-02
1 10065U 25907RA  26075.70034722  .00000000  00000+0  00000-0 0  9999
2 10065  80.0000 192.0000 0000000   0.0000 282.0000 12.53473438    17
CTC1_L_00435017-03
1 10066U 24245DU  26075.70034722  .00000000  00000+0  00000-0 0  9994
2 10066  80.0000 192.0000 0000000   0.0000  12.0000 12.53473438    19
CTC1_L_00435017-04
1 10067U 26672JG  26075.70034722  .00000000  00000+0  00000-0 0  9991
2 10067  80.0000 192.0000 0000000   0.0000 102.0000 12.53473438    10
CTC1_L_00435018-01
1 10068U 26723GY  26075.70034722  .00000000  00000+0  00000-0 0  9999
2 10068  80.0000 204.0000 0000000   0.0000 204.0000 12.53473438    18
CTC1_L_00435018-02
1 10069U 26618WL  26075.70034722  .00000000  00000+0  00000-0 0  9993
2 10069  80.0000 204.0000 0000000   0.0000 294.0000 12.53473438    18
CTC1_L_00435018-03
1 10070U 22186E   26075.70034722  .00000000  00000+0  00000-0 0  9991
2 10070  80.0000 204.0000 0000000   0.0000  24.0000 12.53473438    11
CTC1_L_00435018-04
1 10071U 26366MU  26075.70034722  .00000000  00000+0  00000-0 0  9996
2 10071  80.0000 204.0000 0000000   0.0000 114.0000 12.53473438    12
CTC1_L_00435019-01
1 10072U 25832LT  26075.70034722  .00000000  00000+0  00000-0 0  9994
2 10072  80.0000 216.0000 0000000   0.0000 216.0000 12.53473438    19
CTC1_L_00435019-02
1 10073U 26490FY  26075.70034722  .00000000  00000+0  00000-0 0  9996
2 10073  80.0000 216.0000 0000000   0.0000 306.0000 12.53473438    10
CTC1_L_00435019-03
1 10074U 22085UR  26075.70034722  .00000000  00000+0  00000-0 0  9993
2 10074  80.0000 216.0000 0000000   0.0000  36.0000 12.53473438    11
CTC1_L_00435019-04
1 10075U 24267UX  26075.70034722  .00000000  00000+0  00000-0 0  9998
2 10075  80.0000 216.0000 0000000   0.0000 126.0000 12.53473438    12
CTC1_L_00435020-01
1 10076U 25796LJ  26075.70034722  .00000000  00000+0  00000-0 0  9997
2 10076  80.0000 228.0000 0000000   0.0000 228.0000 12.53473438    19
CTC1_L_00435020-02
1 10077U 22550JT  26075.70034722  .00000000  00000+0  00000-0 0  9993
2 10077  80.0000 228.0000 0000000   0.0000 318.0000 12.53473438    10
CTC1_L_00435020-03
1 10078U 25390QQ  26075.70034722  .00000000  00000+0  00000-0 0  9999
2 10078  80.0000 228.0000 0000000   0.0000  48.0000 12.53473438    11
CTC1_L_00435020-04
1 10079U 23853CX  26075.70034722  .00000000  00000+0  00000-0 0  9992
2 10079  80.0000 228.0000 0000000   0.0000 138.0000 12.53473438    12
CTC1_L_00435021-01
1 10080U 24499QB  26075.70034722  .00000000  00000+0  00000-0 0  9991
2 10080  80.0000 240.0000 0000000   0.0000 240.0000 12.53473438    12
CTC1_L_00435021-02
1 10081U 22024HU  26075.70034722  .00000000  00000+0  00000-0 0  9994
2 10081  80.0000 240.0000 0000000   0.0000 330.0000 12.53473438    13
CTC1_L_00435021-03
1 10082U 23957QH  26075.70034722  .00000000  00000+0  00000-0 0  9991
2 10082  80.0000 240.0000 0000000   0.0000  60.0000 12.53473438    14
CTC1_L_00435021-04
1 10083U 22184XQ  26075.70034722  .00000000  00000+0  00000-0 0  9993
2 10083  80.0000 240.0000 0000000   0.0000 150.0000 12.53473438    15
CTC1_L_00435022-01
1 10084U 26505OH  26075.70034722  .00000000  00000+0  00000-0 0  9995
2 10084  80.0000 252.0000 0000000   0.0000 252.0000 12.53473438    12
CTC1_L_00435022-02
1 10085U 26218OQ  26075.70034722  .00000000  00000+0  00000-0 0  9997
2 10085  80.0000 252.0000 0000000   0.0000 342.0000 12.53473438    13
CTC1_L_00435022-03
1 10086U 24221GF  26075.70034722  .00000000  00000+0  00000-0 0  9990
2 10086  80.0000 252.0000 0000000   0.0000  72.0000 12.53473438    14
CTC1_L_00435022-04
1 10087U 25805NC  26075.70034722  .00000000  00000+0  00000-0 0  9990
2 10087  80.0000 252.0000 0000000   0.0000 162.0000 12.53473438    15
CTC1_L_00435023-01
1 10088U 25134NX  26075.70034722  .00000000  00000+0  00000-0 0  9996
2 10088  80.0000 264.0000 0000000   0.0000 264.0000 12.53473438    12
CTC1_L_00435023-02
1 10089U 26819XQ  26075.70034722  .00000000  00000+0  00000-0 0  9998
2 10089  80.0000 264.0000 0000000   0.0000 354.0000 12.53473438    13
CTC1_L_00435023-03
1 10090U 26541TK  26075.70034722  .00000000  00000+0  00000-0 0  9992
2 10090  80.0000 264.0000 0000000   0.0000  84.0000 12.53473438    15
CTC1_L_00435023-04
1 10091U 22737WG  26075.70034722  .00000000  00000+0  00000-0 0  9996
2 10091  80.0000 264.0000 0000000   0.0000 174.0000 12.53473438    16
CTC1_L_00435024-01
1 10092U 24499ZC  26075.70034722  .00000000  00000+0  00000-0 0  9994
2 10092  80.0000 276.0000 0000000   0.0000 276.0000 12.53473438    13
CTC1_L_00435024-02
1 10093U 26357CY  26075.70034722  .00000000  00000+0  00000-0 0  9990
2 10093  80.0000 276.0000 0000000   0.0000   6.0000 12.53473438    15
CTC1_L_00435024-03
1 10094U 22718R   26075.70034722  .00000000  00000+0  00000-0 0  9998
2 10094  80.0000 276.0000 0000000   0.0000  96.0000 12.53473438    15
CTC1_L_00435024-04
1 10095U 26125VY  26075.70034722  .00000000  00000+0  00000-0 0  9995
2 10095  80.0000 276.0000 0000000   0.0000 186.0000 12.53473438    16
CTC1_L_00435025-01
1 10096U 24159EG  26075.70034722  .00000000  00000+0  00000-0 0  9991
2 10096  80.0000 288.0000 0000000   0.0000 288.0000 12.53473438    13
CTC1_L_00435025-02
1 10097U 22098AF  26075.70034722  .00000000  00000+0  00000-0 0  9992
2 10097  80.0000 288.0000 0000000   0.0000  18.0000 12.53473438    15
CTC1_L_00435025-03
1 10098U 26460WW  26075.70034722  .00000000  00000+0  00000-0 0  9990
2 10098  80.0000 288.0000 0000000   0.0000 108.0000 12.53473438    16
CTC1_L_00435025-04
1 10099U 25391FT  26075.70034722  .00000000  00000+0  00000-0 0  9993
2 10099  80.0000 288.0000 0000000   0.0000 198.0000 12.53473438    16
CTC1_L_00435026-01
1 10100U 26662EI  26075.70034722  .00000000  00000+0  00000-0 0  9998
2 10100  80.0000 300.0000 0000000   0.0000 300.0000 12.53473438    19
CTC1_L_00435026-02
1 10101U 25166AQ  26075.70034722  .00000000  00000+0  00000-0 0  9997
2 10101  80.0000 300.0000 0000000   0.0000  30.0000 12.53473438    10
CTC1_L_00435026-03
1 10102U 25641KC  26075.70034722  .00000000  00000+0  00000-0 0  9996
2 10102  80.0000 300.0000 0000000   0.0000 120.0000 12.53473438    11
CTC1_L_00435026-04
1 10103U 22325TP  26075.70034722  .00000000  00000+0  00000-0 0  9993
2 10103  80.0000 300.0000 0000000   0.0000 210.0000 12.53473438    12
CTC1_L_00435027-01
1 10104U 24312VR  26075.70034722  .00000000  00000+0  00000-0 0  9992
2 10104  80.0000 312.0000 0000000   0.0000 312.0000 12.53473438    19
CTC1_L_00435027-02
1 10105U 23885GJ  26075.70034722  .00000000  00000+0  00000-0 0  9997
2 10105  80.0000 312.0000 0000000   0.0000  42.0000 12.53473438    10
CTC1_L_00435027-03
1 10106U 24055EX  26075.70034722  .00000000  00000+0  00000-0 0  9998
2 10106  80.0000 312.0000 0000000   0.0000 132.0000 12.53473438    11
CTC1_L_00435027-04
1 10107U 23039OS  26075.70034722  .00000000  00000+0  00000-0 0  9990
2 10107  80.0000 312.0000 0000000   0.0000 222.0000 12.53473438    12
CTC1_L_00435028-01
1 10108U 26833PT  26075.70034722  .00000000  00000+0  00000-0 0  9996
2 10108  80.0000 324.0000 0000000   0.0000 324.0000 12.53473438    19
CTC1_L_00435028-02
1 10109U 25175XZ  26075.70034722  .00000000  00000+0  00000-0 0  9995
2 10109  80.0000 324.0000 0000000   0.0000  54.0000 12.53473438    10
CTC1_L_00435028-03
1 10110U 22339GN  26075.70034722  .00000000  00000+0  00000-0 0  9996
2 10110  80.0000 324.0000 0000000   0.0000 144.0000 12.53473438    12
CTC1_L_00435028-04
1 10111U 25545WP  26075.70034722  .00000000  00000+0  00000-0 0  9999
2 10111  80.0000 324.0000 0000000   0.0000 234.0000 12.53473438    13
CTC1_L_00435029-01
1 10112U 24188DQ  26075.70034722  .00000000  00000+0  00000-0 0  9992
2 10112  80.0000 336.0000 0000000   0.0000 336.0000 12.53473438    10
CTC1_L_00435029-02
1 10113U 23384KH  26075.70034722  .00000000  00000+0  00000-0 0  9990
2 10113  80.0000 336.0000 0000000   0.0000  66.0000 12.53473438    11
CTC1_L_00435029-03
1 10114U 26138KZ  26075.70034722  .00000000  00000+0  00000-0 0  9991
2 10114  80.0000 336.0000 0000000   0.0000 156.0000 12.53473438    12
CTC1_L_00435029-04
1 10115U 22879SU  26075.70034722  .00000000  00000+0  00000-0 0  9990
2 10115  80.0000 336.0000 0000000   0.0000 246.0000 12.53473438    13
CTC1_L_00435030-01
1 10116U 25347WU  26075.70034722  .00000000  00000+0  00000-0 0  9994
2 10116  80.0000 348.0000 0000000   0.0000 348.0000 12.53473438    10
CTC1_L_00435030-02
1 10117U 25792JJ  26075.70034722  .00000000  00000+0  00000-0 0  9999
2 10117  80.0000 348.0000 0000000   0.0000  78.0000 12.53473438    11
CTC1_L_00435030-03
1 10118U 25456V   26075.70034722  .00000000  00000+0  00000-0 0  9997
2 10118  80.0000 348.0000 0000000   0.0000 168.0000 12.53473438    12
CTC1_L_00435030-04
1 10119U 23544BJ  26075.70034722  .00000000  00000+0  00000-0 0  9994
2 10119  80.0000 348.0000 0000000   0.0000 258.0000 12.53473438    13
